#aV2013  6 19  0  0  0.00000000     288 DD+AD WGS84 FIT  NGA
## 1745 259200.00000000   300.00000000 56462 0.0000000000000
+   31     1  2  3  4  5  6  7  8  9 10 11 12 13 14 15 16 17
+         18 19 20 21 22 23 24 25 26 27 28 29 31 32  0  0  0
+          0  0  0  0  0  0  0  0  0  0  0  0  0  0  0  0  0
+          0  0  0  0  0  0  0  0  0  0  0  0  0  0  0  0  0
+          0  0  0  0  0  0  0  0  0  0  0  0  0  0  0  0  0
++         2  2  2  2  2  2  2  2  2  2  2  2  2  2  2  2  2
++         2  2  2  2  2  2  2  2  2  2  2  2  2  2  2  0  0
++         0  0  0  0  0  0  0  0  0  0  0  0  0  0  0  0  0
++         0  0  0  0  0  0  0  0  0  0  0  0  0  0  0  0  0
++         0  0  0  0  0  0  0  0  0  0  0  0  0  0  0  0  0
%c cc cc ccc ccc cccc cccc cccc cccc ccccc ccccc ccccc ccccc
%c cc cc ccc ccc cccc cccc cccc cccc ccccc ccccc ccccc ccccc
%f  0.0000000  0.000000000  0.00000000000  0.000000000000000
%f  0.0000000  0.000000000  0.00000000000  0.000000000000000
%i    0    0    0    0      0      0      0      0         0
%i    0    0    0    0      0      0      0      0         0
/*      NGA, ST. LOUIS,MO.                                  
/*   EPHEMERIS COMPUTED FROM  1 DAYS OF DATA
/*   EPOCHA SMOOTHER  
/* CCCCCCCCCCCCCCCCCCCCCCCCCCCCCCCCCCCCCCCCCCCCCCCCCCCCCCCCC
*  2013  6 19  9 35  0.00000000                                                 
P  1 -13749.293776  20320.562328  10037.816131     39.399536                    
V  1   1350.229973 -12995.342711  28200.238623      0.045936                    
P  2  15260.439929   3297.023051 -21254.050134    437.762156                    
V  2  -7308.625236  26622.918555  -1611.484803      0.017905                    
P  3 -22098.160925  -5193.370480  13440.758648    222.059224                    
V  3 -12116.818279 -13487.266407 -23990.688454      0.048561                    
P  4  10797.888788  14316.669298 -19789.647710    249.809687                    
V  4  -8687.293094  23158.708867  12466.127582      0.102716                    
P  5  25799.894104  -1023.172827  -6564.289740   -397.257705                    
V  5  -7429.659630   4695.348055 -29905.088597     -0.007117                    
P  6 -22192.033629 -11222.963238   9915.044219    180.859928                    
V  6  -7071.485526 -10537.882297 -27601.086345     -0.170514                    
P  7  -5197.075949  25463.041661   4663.275998    226.787634                    
V  7  -4305.632913   4789.678366 -31535.673542      0.042076                    
P  8    875.209078  21773.882794  14852.987688      6.850870                    
V  8  -9041.758861  16609.321507 -24571.029201      0.002972                    
P  9   8100.881589  16196.448797  18832.217337    248.821433                    
V  9  -8606.920034  23595.489411 -16207.633047      0.025626                    
P 10  15628.396676  10836.356893 -18995.472195    -84.031196                    
V 10 -22673.627304   6047.482209 -15029.370173     -0.012951                    
P 11 -13557.193550  15068.456176  16592.673476   -392.973409                    
V 11  -3084.001667 -22309.008702  17551.567067     -0.035813                    
P 12  22240.114200 -10701.884935  -9566.745541    140.179726                    
V 12  12288.228600   -288.468451  29214.630669      0.020830                    
P 13   -420.458453  19544.065750 -18056.032999    108.075463                    
V 13 -14621.676801 -17342.199154 -18703.366339     -0.036649                    
P 14 -14997.915603 -21866.901768   2811.146883    220.198546                    
V 14   3801.582284   1191.516438  31689.340034     -0.003401                    
P 15  15153.347300  -6288.448767  20899.376367   -123.967031                    
V 15  18136.226081  19515.074463  -7010.980301     -0.016379                    
P 16 -25806.036325   -303.834048  -7021.632022   -251.173179                    
V 16   8370.795215  -3118.122736 -30413.001226      0.003678                    
P 17  15056.878951  21745.468350   3773.584585      7.467225                    
V 17  -4737.151546  -1862.350293  31239.770153     -0.039107                    
P 18    624.468631 -16452.410538  21215.297803    259.446096                    
V 18  25700.326515  -5008.442091  -5089.721634      0.018616                    
P 19 -17269.397417    532.318538  20191.916648   -382.243837                    
V 19 -14955.023231 -20952.687784 -11760.336945     -0.030196                    
P 20 -17892.832192  14984.629275 -12785.355984    104.457933                    
V 20 -16307.485802   1381.020960  24844.339103      0.021610                    
P 21   1093.727448 -25015.239043   8599.890149   -303.941046                    
V 21   6650.891086  -8768.371487 -28763.468863     -0.020544                    
P 22 -12130.925726 -12816.145917  20086.463179    172.284626                    
V 22  24308.973127  -6647.927430  10396.940738      0.014936                    
P 23  -8651.040562  12970.102881 -21387.532230     74.774751                    
V 23 -18788.074527 -19952.138161  -4880.094366     -0.035732                    
P 24  14958.310208 -17541.030404  13141.821754     -8.481712                    
V 24  -2619.923188  16687.883087  25270.025259     -0.007365                    
P 25  11449.980476 -15446.537118 -18337.278146    111.394784                    
V 25  22888.404907  -3864.685879  17697.046928      0.047117                    
P 26  19646.674516   9355.795863  14810.354824     60.631977                    
V 26  10698.161667  16723.816496 -23424.898156      0.160978                    
P 27 -21050.868340  -8549.587519  13756.208117     -2.678128                    
V 27 -10273.993971 -14303.770552 -24597.088361     -0.026330                    
P 28   7652.690301  13630.927509  22080.358149    268.635342                    
V 28 -26166.243914   4582.840806   6239.558904      0.032747                    
P 29    869.660673 -18951.970565 -18557.657021    446.276672                    
V 29  16204.524492  17259.426808 -16775.617390      0.034434                    
P 31  -9670.212828 -13803.207247 -20283.779124    318.206301                    
V 31   9380.082833 -24442.514234  12331.486160      0.012046                    
P 32 -24331.459510   7718.717850  -6135.528161   -559.052180                    
V 32  -8483.903240  -2404.690281  30509.597374     -0.000987                    
EOF
